{
  "fetched_at": "2026-05-22T02:09:15.059544+00:00",
  "satellites": {
    "57166": {
      "name": "Meteor M2-3",
      "tle_line1": "1 57166U 23091A   26141.89061318 -.00000015  00000+0  12214-4 0  9990",
      "tle_line2": "2 57166  98.6096 197.4044 0002925 237.0117 123.0781 14.24044222150770"
    },
    "59051": {
      "name": "Meteor M2-4",
      "tle_line1": "1 59051U 24039A   26141.87548602  .00000007  00000+0  22781-4 0  9992",
      "tle_line2": "2 59051  98.6997 101.5068 0005986 242.4061 117.6510 14.22426484115520"
    },
    "38771": {
      "name": "MetOp-B",
      "tle_line1": "1 38771U 12049A   26141.79280632  .00000060  00000+0  47426-4 0  9995",
      "tle_line2": "2 38771  98.6520 193.8162 0003404  75.5779 284.5776 14.21424493709514"
    },
    "43689": {
      "name": "MetOp-C",
      "tle_line1": "1 43689U 18087A   26141.81347556  .00000066  00000+0  50073-4 0  9997",
      "tle_line2": "2 43689  98.6657 201.8969 0000617 149.8536 210.2677 14.21504033391087"
    },
    "60543": {
      "name": "Arctic Weather Satellite",
      "tle_line1": "1 60543U 24149CD  26141.75800374  .00000496  00000+0  57223-4 0  9997",
      "tle_line2": "2 60543  97.6807 212.9777 0002390 157.8667 202.2654 14.89804911 95365"
    }
  }
}